{
  "type": "FeatureCollection",
  "features": [
    {
      "type": "Feature",
      "properties": {
        "norad_id": 29857,
        "name": "FENGYUN 1C DEB",
        "group": "fengyun-1c-debris",
        "lat": 15.291822676015126,
        "lon": 170.5777299709794,
        "alt_km": 1077.1295161004273,
        "timestamp": "2025-12-06T05:40:09.513227+00:00",
        "meta_object_name": "FENGYUN 1C DEB",
        "meta_object_id": "1999-025FB",
        "meta_epoch": "2025-12-03T00:24:03.975552",
        "meta_mean_motion": 13.81815746,
        "meta_eccentricity": 0.01930395,
        "meta_inclination": 98.423,
        "meta_ra_of_asc_node": 345.3779,
        "meta_arg_of_pericenter": 321.0116,
        "meta_mean_anomaly": 37.7254,
        "meta_ephemeris_type": 0,
        "meta_classification_type": "U",
        "meta_norad_cat_id": 29857,
        "meta_element_set_no": 999,
        "meta_rev_at_epoch": 94641,
        "meta_bstar": 0.0022431403,
        "meta_mean_motion_dot": 2.73e-05,
        "meta_mean_motion_ddot": 0,
        "tle_line1": "1 29857U 99025FB  25337.01671268  .00002730  00000+0  22431-2 0  9992",
        "tle_line2": "2 29857  98.4230 345.3779 0193039 321.0116  37.7254 13.81815746946412"
      },
      "geometry": {
        "type": "Point",
        "coordinates": [
          170.5777299709794,
          15.291822676015126
        ]
      }
    },
    {
      "type": "Feature",
      "properties": {
        "norad_id": 29858,
        "name": "FENGYUN 1C DEB",
        "group": "fengyun-1c-debris",
        "lat": 14.785956055201384,
        "lon": -95.49027778976564,
        "alt_km": 952.5425917982066,
        "timestamp": "2025-12-06T05:40:09.513238+00:00",
        "meta_object_name": "FENGYUN 1C DEB",
        "meta_object_id": "1999-025FC",
        "meta_epoch": "2025-12-05T06:21:54.097344",
        "meta_mean_motion": 13.77759656,
        "meta_eccentricity": 0.01991031,
        "meta_inclination": 99.2135,
        "meta_ra_of_asc_node": 81.112,
        "meta_arg_of_pericenter": 84.206,
        "meta_mean_anomaly": 304.8457,
        "meta_ephemeris_type": 0,
        "meta_classification_type": "U",
        "meta_norad_cat_id": 29858,
        "meta_element_set_no": 999,
        "meta_rev_at_epoch": 94451,
        "meta_bstar": 0.002084417,
        "meta_mean_motion_dot": 2.373e-05,
        "meta_mean_motion_ddot": 0,
        "tle_line1": "1 29858U 99025FC  25339.26520946  .00002373  00000+0  20844-2 0  9997",
        "tle_line2": "2 29858  99.2135  81.1120 0199103  84.2060 304.8457 13.77759656944519"
      },
      "geometry": {
        "type": "Point",
        "coordinates": [
          -95.49027778976564,
          14.785956055201384
        ]
      }
    },
    {
      "type": "Feature",
      "properties": {
        "norad_id": 29859,
        "name": "FENGYUN 1C DEB",
        "group": "fengyun-1c-debris",
        "lat": 15.271971495224337,
        "lon": -1.9389196248522576,
        "alt_km": 892.5074544467698,
        "timestamp": "2025-12-06T05:40:09.513248+00:00",
        "meta_object_name": "FENGYUN 1C DEB",
        "meta_object_id": "1999-025FD",
        "meta_epoch": "2025-12-04T12:38:42.946944",
        "meta_mean_motion": 13.73952234,
        "meta_eccentricity": 0.0295578,
        "meta_inclination": 98.3349,
        "meta_ra_of_asc_node": 174.2734,
        "meta_arg_of_pericenter": 235.1591,
        "meta_mean_anomaly": 122.1437,
        "meta_ephemeris_type": 0,
        "meta_classification_type": "U",
        "meta_norad_cat_id": 29859,
        "meta_element_set_no": 999,
        "meta_rev_at_epoch": 93867,
        "meta_bstar": 0.0052744,
        "meta_mean_motion_dot": 6.751e-05,
        "meta_mean_motion_ddot": 0,
        "tle_line1": "1 29859U 99025FD  25338.52688596  .00006751  00000+0  52744-2 0  9990",
        "tle_line2": "2 29859  98.3349 174.2734 0295578 235.1591 122.1437 13.73952234938673"
      },
      "geometry": {
        "type": "Point",
        "coordinates": [
          -1.9389196248522576,
          15.271971495224337
        ]
      }
    },
    {
      "type": "Feature",
      "properties": {
        "norad_id": 29860,
        "name": "FENGYUN 1C DEB",
        "group": "fengyun-1c-debris",
        "lat": -44.50282798505433,
        "lon": -173.8242763526645,
        "alt_km": 1094.427758805251,
        "timestamp": "2025-12-06T05:40:09.513258+00:00",
        "meta_object_name": "FENGYUN 1C DEB",
        "meta_object_id": "1999-025FE",
        "meta_epoch": "2025-12-05T00:57:22.336704",
        "meta_mean_motion": 13.77469061,
        "meta_eccentricity": 0.02211082,
        "meta_inclination": 98.6175,
        "meta_ra_of_asc_node": 13.6603,
        "meta_arg_of_pericenter": 4.1815,
        "meta_mean_anomaly": 53.1495,
        "meta_ephemeris_type": 0,
        "meta_classification_type": "U",
        "meta_norad_cat_id": 29860,
        "meta_element_set_no": 999,
        "meta_rev_at_epoch": 94033,
        "meta_bstar": 0.0044225337,
        "meta_mean_motion_dot": 5.236e-05,
        "meta_mean_motion_ddot": 0,
        "tle_line1": "1 29860U 99025FE  25339.03984186  .00005236  00000+0  44225-2 0  9995",
        "tle_line2": "2 29860  98.6175  13.6603 0221108   4.1815  53.1495 13.77469061940335"
      },
      "geometry": {
        "type": "Point",
        "coordinates": [
          -173.8242763526645,
          -44.50282798505433
        ]
      }
    },
    {
      "type": "Feature",
      "properties": {
        "norad_id": 29865,
        "name": "FENGYUN 1C DEB",
        "group": "fengyun-1c-debris",
        "lat": 24.27865715786551,
        "lon": -113.8192796454509,
        "alt_km": 680.0315993602826,
        "timestamp": "2025-12-06T05:40:09.513269+00:00",
        "meta_object_name": "FENGYUN 1C DEB",
        "meta_object_id": "1999-025FK",
        "meta_epoch": "2025-12-05T05:56:35.015136",
        "meta_mean_motion": 14.82465212,
        "meta_eccentricity": 0.01160091,
        "meta_inclination": 98.9202,
        "meta_ra_of_asc_node": 249.1417,
        "meta_arg_of_pericenter": 165.0477,
        "meta_mean_anomaly": 347.6514,
        "meta_ephemeris_type": 0,
        "meta_classification_type": "U",
        "meta_norad_cat_id": 29865,
        "meta_element_set_no": 999,
        "meta_rev_at_epoch": 647,
        "meta_bstar": 0.0012147827,
        "meta_mean_motion_dot": 0.00010906,
        "meta_mean_motion_ddot": 0,
        "tle_line1": "1 29865U 99025FK  25339.24762749  .00010906  00000+0  12148-2 0  9991",
        "tle_line2": "2 29865  98.9202 249.1417 0116009 165.0477 347.6514 14.82465212  6479"
      },
      "geometry": {
        "type": "Point",
        "coordinates": [
          -113.8192796454509,
          24.27865715786551
        ]
      }
    },
    {
      "type": "Feature",
      "properties": {
        "norad_id": 29866,
        "name": "FENGYUN 1C DEB",
        "group": "fengyun-1c-debris",
        "lat": -43.74290800366439,
        "lon": 138.34891195518253,
        "alt_km": 551.9546421407704,
        "timestamp": "2025-12-06T05:40:09.513279+00:00",
        "meta_object_name": "FENGYUN 1C DEB",
        "meta_object_id": "1999-025FL",
        "meta_epoch": "2025-12-04T23:26:29.149728",
        "meta_mean_motion": 14.64164884,
        "meta_eccentricity": 0.019412,
        "meta_inclination": 98.036,
        "meta_ra_of_asc_node": 324.8898,
        "meta_arg_of_pericenter": 239.4993,
        "meta_mean_anomaly": 190.286,
        "meta_ephemeris_type": 0,
        "meta_classification_type": "U",
        "meta_norad_cat_id": 29866,
        "meta_element_set_no": 999,
        "meta_rev_at_epoch": 213,
        "meta_bstar": 0.00066436,
        "meta_mean_motion_dot": 4.546e-05,
        "meta_mean_motion_ddot": 0,
        "tle_line1": "1 29866U 99025FL  25338.97672627  .00004546  00000+0  66436-3 0  9999",
        "tle_line2": "2 29866  98.0360 324.8898 0194120 239.4993 190.2860 14.64164884  2135"
      },
      "geometry": {
        "type": "Point",
        "coordinates": [
          138.34891195518253,
          -43.74290800366439
        ]
      }
    },
    {
      "type": "Feature",
      "properties": {
        "norad_id": 29868,
        "name": "FENGYUN 1C DEB",
        "group": "fengyun-1c-debris",
        "lat": 80.42830658625684,
        "lon": -97.96523580021157,
        "alt_km": 578.0857668098297,
        "timestamp": "2025-12-06T05:40:09.513290+00:00",
        "meta_object_name": "FENGYUN 1C DEB",
        "meta_object_id": "1999-025FN",
        "meta_epoch": "2025-12-05T01:54:32.019264",
        "meta_mean_motion": 14.78277319,
        "meta_eccentricity": 0.01977351,
        "meta_inclination": 97.9512,
        "meta_ra_of_asc_node": 24.9123,
        "meta_arg_of_pericenter": 28.7778,
        "meta_mean_anomaly": 32.4671,
        "meta_ephemeris_type": 0,
        "meta_classification_type": "U",
        "meta_norad_cat_id": 29868,
        "meta_element_set_no": 999,
        "meta_rev_at_epoch": 182,
        "meta_bstar": 0.0013035854,
        "meta_mean_motion_dot": 0.00013113,
        "meta_mean_motion_ddot": 0,
        "tle_line1": "1 29868U 99025FN  25339.07953726  .00013113  00000+0  13036-2 0  9992",
        "tle_line2": "2 29868  97.9512  24.9123 0197735  28.7778  32.4671 14.78277319  1823"
      },
      "geometry": {
        "type": "Point",
        "coordinates": [
          -97.96523580021157,
          80.42830658625684
        ]
      }
    }
  ]
}